CHUBUSAT-3              
1 41339U 16012C   21002.79725933  .00000436  00000-0  26910-4 0  9995
2 41339  31.0106 156.5987 0013841 300.4146  59.5124 15.00572050267690
HORYU-4                 
1 41340U 16012D   21002.72302971  .00000672  00000-0  43797-4 0  9997
2 41340  31.0042 142.6182 0014009 326.8478  33.1279 15.01699951267859
OUFTI-1                 
1 41458U 16025C   21002.91586935  .00002371  00000-0  12016-3 0  9993
2 41458  98.1222 130.3753 0159810 257.7202 100.6092 15.07693783257527
E-ST@R-II               
1 41459U 16025D   21002.75720918  .00003241  00000-0  16381-3 0  9993
2 41459  98.1205 129.4457 0161837 260.6263  97.6659 15.07193201257457
AAUSAT 4                
1 41460U 16025E   21002.77043839  .00004519  00000-0  21835-3 0  9996
2 41460  98.1184 132.5582 0149608 247.0328 111.5058 15.09853175257704
AIST-2D (RS-48)         
1 41465U 16026B   21002.84107730  .00002939  00000-0  87361-4 0  9992
2 41465  97.1273 252.4576 0009423 249.4251 172.9812 15.35487224262019
SAMSAT-218D             
1 41466U 16026C   21002.78748714  .00015262  00000-0  27170-3 0  9993
2 41466  97.1683 271.5694 0005432 175.2792 231.7572 15.50206233263137
NUSAT-1 (FRESCO)        
1 41557U 16033B   21002.83555369  .00002738  00000-0  10048-3 0  9990
2 41557  97.3998  97.7931 0014826 101.0948   9.0408 15.28727172256229
NUSAT-2 (BATATA)        
1 41558U 16033C   21002.86728242  .00002992  00000-0  10290-3 0  9997
2 41558  97.4076 100.9130 0013850  96.8255  22.1318 15.30787149256380
CARTOSAT-2C             
1 41599U 16040A   21002.87100240 -.00000504  00000-0 -20685-4 0  9992
2 41599  97.4228  65.3255 0012642 231.5609 189.7611 15.19226903251378
SATHYABAMASAT           
1 41600U 16040B   21002.80774818  .00002408  00000-0  98234-4 0  9994
2 41600  97.2970  64.2830 0012788 196.7703 163.3114 15.25317839251897
LAPAN-A3                
1 41603U 16040E   21002.83012758  .00000192  00000-0  12005-4 0  9998
2 41603  97.2824  55.8106 0012231 218.3296 255.0571 15.19938258251423
BIROS                   
1 41604U 16040F   21002.90127347  .00000724  00000-0  34324-4 0  9997
2 41604  97.2885  60.6437 0011668 196.2167 163.8698 15.22307329251717
SWAYAM                  
1 41607U 16040J   21002.66683909  .00002217  00000-0  91450-4 0  9996
2 41607  97.2926  63.1203 0012352 196.9450 163.1378 15.25024263251778
BEESAT-4                
1 41619U 16040W   21002.72716155  .00002057  00000-0  85780-4 0  9997
2 41619  97.2944  63.3214 0010612 188.2488 171.8577 15.24746094239750
3CAT-2                  
1 41732U 16051B   21002.83098436  .00002387  00000-0  89253-4 0  9997
2 41732  97.3794 284.6124 0013497  21.4485  20.0923 15.28248458244208
PRATHAM                 
1 41783U 16059A   21002.89773355  .00000093  00000-0  26947-4 0  9990
2 41783  97.9903  58.4551 0034493  49.6128 310.8077 14.63102301228046
ALSAT 1N                
1 41789U 16059G   21002.81076287  .00000129  00000-0  33093-4 0  9998
2 41789  97.9951  61.6653 0029095  36.8887 323.4310 14.64376822228206
LISHUI 1-01             
1 41845U 16066E   21002.84308743  .00005947  00000-0  77393-3 0  9990
2 41845  98.7326  97.7511 0280586 268.6186  88.2860 14.57196996219264
CARTOSAT-2D             
1 41948U 17008A   21002.16877391  .00000727  00000-0  37777-4 0  9990
2 41948  97.4669  64.6871 0008103  32.3200 327.8511 15.19212956215133
NAYIF-1 (EO-88)         
1 42017U 17008BX  21002.91567817  .00002249  00000-0  86766-4 0  9993
2 42017  97.3379  73.3906 0005537 351.9123   8.2026 15.27315449215980
ZHUHAI-1 02 (CAS-4B)    
1 42759U 17034B   21002.86658174  .00000718  00000-0  56747-4 0  9991
2 42759  43.0192  11.2866 0009700 214.9397 210.9259 15.10029888196111
ZHUHAI-1 01 (CAS-4A)    
1 42761U 17034D   21002.75320862  .00000735  00000-0  57652-4 0  9997
2 42761  43.0191  11.0801 0010640 214.1363 314.8022 15.10110213196092
UCLSAT                  
1 42765U 17036A   21002.78975992  .00001771  00000-0  75452-4 0  9995
2 42765  97.2747  57.4306 0012274  49.5211 310.7095 15.24177235196935
NIUSAT                  
1 42766U 17036B   21002.88531815  .00001438  00000-0  65341-4 0  9995
2 42766  97.2746  54.4334 0016316  43.8110 316.4417 15.22215184196024
CARTOSAT-2E             
1 42767U 17036C   21002.90520121  .00000408  00000-0  22535-4 0  9991
2 42767  97.3962  63.8400 0010516  68.9321 291.3039 15.19249030195812
LITUANICASAT-2          
1 42768U 17036D   21002.87036630  .00003003  00000-0  12229-3 0  9997
2 42768  97.2814  57.8553 0015044  37.7927 322.4365 15.25148145196223
AALTO-1                 
1 42775U 17036L   21002.85745780  .00001111  00000-0  51127-4 0  9995
2 42775  97.2723  54.7200 0014789  43.6669 316.5735 15.22249649196008
URSA MAIOR              
1 42776U 17036M   21002.88642961  .00001270  00000-0  57676-4 0  9997
2 42776  97.2734  55.1245 0014551  43.2431 316.9945 15.22476755196024
COMPASS 2               
1 42777U 17036N   21002.79152002  .00002243  00000-0  93123-4 0  9998
2 42777  97.2799  58.0950 0012876  40.4822 319.7371 15.24784931196161
MAX VALIER SAT          
1 42778U 17036P   21002.70694971  .00001366  00000-0  60702-4 0  9998
2 42778  97.2797  56.5747 0013137  46.9103 313.3232 15.23108723196053
PEGASUS                 
1 42784U 17036V   21002.85786676  .00001701  00000-0  73340-4 0  9990
2 42784  97.2755  57.1021 0012871  50.0200 310.2165 15.23812513196133
NUDTSAT                 
1 42787U 17036Y   21002.92493392  .00003009  00000-0  12162-3 0  9998
2 42787  97.2805  59.0675 0012607  42.2906 317.9305 15.25428450196091
SUCHAI                  
1 42788U 17036Z   21002.87001673  .00001967  00000-0  82773-4 0  9997
2 42788  97.2763  57.9022 0012314  48.3344 311.8946 15.24477607196255
SKCUBE                  
1 42789U 17036AA  21002.87365326  .00001789  00000-0  75990-4 0  9991
2 42789  97.2756  57.6904 0012234  48.8207 311.4084 15.24268590196166
VZLUSAT-1               
1 42790U 17036AB  21002.78535627  .00002500  00000-0  10165-3 0  9990
2 42790  97.2787  58.9212 0011568  46.4113 313.8083 15.25401642196227
ROBUSTA-1B              
1 42792U 17036AD  21002.86696172  .00001868  00000-0  78739-4 0  9992
2 42792  97.2760  58.0014 0011818  49.2346 310.9916 15.24479888196193
D-SAT                   
1 42794U 17036AF  21002.78422138  .00000336  00000-0  34023-4 0  9991
2 42794  97.4752  31.3644 0127237  59.8772 301.4987 14.91414114192366
NORSAT 2                
1 42828U 17042D   21002.89082602  .00000438  00000-0  48719-4 0  9996
2 42828  97.4993 242.0867 0014008 344.1875  15.8905 14.91690898189057
TECHNOSAT               
1 42829U 17042E   21002.91885545  .00000267  00000-0  32160-4 0  9990
2 42829  97.4919 240.9908 0013807 346.1966  13.8874 14.91196578189013
2017-042F               
1 42830U 17042F   21002.90190021  .00000794  00000-0  82302-4 0  9997
2 42830  97.5021 243.0035 0013764 339.2428  20.8231 14.92559012189105
FLYING LAPTOP           
1 42831U 17042G   21002.89416763  .00000666  00000-0  72190-4 0  9992
2 42831  97.4930 241.1472 0013617 346.6929  13.3899 14.91221490189015
CORVUS BC2              
1 42846U 17042X   21002.94207509  .00000430  00000-0  47330-4 0  9997
2 42846  97.4955 243.1729 0009043 340.9476  19.1404 14.92205611189156
CORVUS BC1              
1 42847U 17042Y   21002.92417575  .00000267  00000-0  31317-4 0  9998
2 42847  97.4959 243.3624 0008657 340.6245  19.4645 14.92307335189154
SIMPL                   
1 42983U 98067NF  21002.40771219  .00006988  00000-0  78304-4 0  9999
2 42983  51.6383  21.1825 0004232  80.9136 279.2337 15.63958214181390
CZ-4C R/B               
1 43012U 17072C   21002.95829238  .00000069  00000-0  25577-4 0  9993
2 43012  98.7314   9.9068 0128285 137.9703 223.1423 14.56131110166656
RADFXSAT (FOX-1B)       
1 43017U 17073E   21002.69238051  .00000620  00000-0  52676-4 0  9990
2 43017  97.7173 273.1736 0257210 120.8402 241.8391 14.79238946168617
EAGLESAT 1              
1 43018U 17073F   21002.69917119  .00001034  00000-0  83240-4 0  9991
2 43018  97.7174 273.8227 0254412 118.2685 244.4457 14.80101841168523
ECAMSAT                 
1 43019U 98067NG  21002.26643694  .00017380  00000-0  13782-3 0  9995
2 43019  51.6411 359.3275 0004570  74.8669 285.2834 15.71394316263998
INS-1C                  
1 43116U 18004F   21002.81835728  .00001691  00000-0  71617-4 0  9998
2 43116  97.4329  78.7790 0010706  69.4592 290.7793 15.24505344165404
FLOCK 3P'-3             
1 43119U 18004J   21002.76172097  .00001291  00000-0  56450-4 0  9992
2 43119  97.4318  77.8425 0011549  76.5733 283.6790 15.23827279165346
FLOCK 3P'-2             
1 43120U 18004K   21002.77133387  .00000972  00000-0  43590-4 0  9990
2 43120  97.4322  77.7088 0011556  76.8496 283.4030 15.23567895165333
FLOCK 3P'-1             
1 43121U 18004L   21002.69762206  .00002722  00000-0  10932-3 0  9998
2 43121  97.4323  78.8387 0010796  73.7669 286.4756 15.25770159165331
FLOCK 3P'-4             
1 43122U 18004M   21002.76944259  .00001030  00000-0  45973-4 0  9992
2 43122  97.4333  77.7875 0011430  78.5927 281.6594 15.23582301165334
MICROMAS-2A             
1 43131U 18004W   21002.90144430  .00002738  00000-0  10829-3 0  9998
2 43131  97.4297  79.8693 0010240  72.0010 288.2344 15.26284288165505
PICSAT                  
1 43132U 18004X   21002.89214316  .00001979  00000-0  81762-4 0  9999
2 43132  97.4279  78.8563 0010859  75.3802 284.8639 15.25143107165447
CNUSAIL-1               
1 43133U 18004Y   21002.68955452  .00001524  00000-0  65171-4 0  9992
2 43133  97.4263  77.9449 0010983  77.1781 283.0683 15.24331341165378
2018-004Z               
1 43134U 18004Z   21002.77233130  .00001741  00000-0  72947-4 0  9995
2 43134  97.4273  78.5300 0010740  76.6574 283.5860 15.24828200165410
FOX-1D (AO-92)          
1 43137U 18004AC  21002.78025876  .00001657  00000-0  69862-4 0  9993
2 43137  97.4264  78.4139 0010556  77.6233 282.6185 15.24681168165410
